#aV2010 11 16  0  0   .00000000      96 DD+AD WGS84 FIT  NGA
## 1610 172800.00000000   900.00000000 55516  .0000000000000
+   32     1  2  3  4  5  6  7  8  9 10 11 12 13 14 15 16 17
+         18 19 20 21 22 23 24 25 26 27 28 29 30 31 32  0  0
+          0  0  0  0  0  0  0  0  0  0  0  0  0  0  0  0  0
+          0  0  0  0  0  0  0  0  0  0  0  0  0  0  0  0  0
+          0  0  0  0  0  0  0  0  0  0  0  0  0  0  0  0  0
++         0  0  0  0  0  0  0  0  0  0  0  0  0  0  0  0  0
++         0  0  0  0  0  0  0  0  0  0  0  0  0  0  0  0  0
++         0  0  0  0  0  0  0  0  0  0  0  0  0  0  0  0  0
++         0  0  0  0  0  0  0  0  0  0  0  0  0  0  0  0  0
++         0  0  0  0  0  0  0  0  0  0  0  0  0  0  0  0  0
%c cc cc ccc ccc cccc cccc cccc cccc ccccc ccccc ccccc ccccc
%c cc cc ccc ccc cccc cccc cccc cccc ccccc ccccc ccccc ccccc
%f  0.0000000  0.000000000  0.00000000000  0.000000000000000
%f  0.0000000  0.000000000  0.00000000000  0.000000000000000
%i    0    0    0    0      0      0      0      0         0
%i    0    0    0    0      0      0      0      0         0
/*      NGA, ST. LOUIS,MO.                                  
/*   EPHEMERIS COMPUTED FROM  3 DAYS OF DATA                
/* CCCCCCCCCCCCCCCCCCCCCCCCCCCCCCCCCCCCCCCCCCCCCCCCCCCCCCCCC
/* CCCCCCCCCCCCCCCCCCCCCCCCCCCCCCCCCCCCCCCCCCCCCCCCCCCCCCCCC
*  2010 11 16 23 30   .00000000                                                 
P  1 -23303.192062  -2985.296012  12391.389388   -182.860058                    
V  1 -12910.283591  -9454.653659 -26189.779734      -.035848                    
P  2  22953.441849 -12684.691754  -1999.545970    302.834292                    
V  2   -122.107648   4669.923568 -31444.973516       .024678                    
P  3 -11428.252000  15196.898131  18013.629661    636.222967                    
V  3  -5706.832730 -23341.914642  16051.103328       .052623                    
P  4  23679.657462  -4129.273179 -11879.372833    221.417955                    
V  4 -11233.607634   9838.256523 -25890.392422       .096821                    
P  5  15618.348311  -7620.338227  20098.345872    -68.520751                    
V  5  21901.156529  13178.255149 -11919.143638      -.059740                    
P  6 -14166.960108  10187.529865  20138.609882    418.317279                    
V  6  -3159.428085 -25198.859988  10791.670770      -.123046                    
P  7   9280.421210  11821.243223  21910.091279      -.566974                    
V  7 -23794.777730  14309.384805   2162.681368       .003763                    
P  8  19279.988033   3512.592674  18197.843912      6.935389                    
V  8 -20051.599260  10880.969909  18621.411800      -.000099                    
P  9  10149.438092 -19104.413664 -15941.829967     42.947607                    
V  9  16920.526367  -9210.982080  22600.189871       .023736                    
P 10  23917.179355   5113.061845  10596.255428    -58.077778                    
V 10  10558.059989   8985.896658 -27296.868665      -.009831                    
P 11  -3502.317910  21356.674144 -15470.406266   -104.441528                    
V 11 -16262.247720  11362.166351  20118.074958      -.028660                    
P 12   -805.980832 -16643.087072 -20683.455993    -53.242439                    
V 12  23225.588394  12296.009173 -10632.512126       .035234                    
P 13   5742.128284  23534.614828  10702.559878    291.836210                    
V 13  -2428.131052  13653.049520 -28415.002058      -.011134                    
P 14 -13888.546204  -7449.472652 -21243.379862    107.815155                    
V 14   1355.235669 -27225.757655   8463.350745       .033276                    
P 15   4755.352693 -24803.145968   8011.691568   -182.480627                    
V 15   3386.855209  10074.910555  29389.996850       .045043                    
P 16 -19535.810993   2643.274956  17962.395821   -126.700655                    
V 16 -18852.487004 -12537.654795 -18418.117118      -.032382                    
P 17  14040.554615  10037.367408 -20138.036418    177.443125                    
V 17  -1109.312224  25750.964416  11777.020815       .010012                    
P 18 -18885.585273 -17431.636090   7727.442187    105.093358                    
V 18   9615.030462   2051.869917  28879.907875       .021634                    
P 19  -7969.740401  23377.607372   9322.990949    -83.809116                    
V 19  -2170.745967 -12090.474971  28795.717622      -.033780                    
P 20   3547.953443  17880.594819 -19477.390150     49.534590                    
V 20 -22528.047675  -9753.847755 -13086.048246      -.002193                    
P 21 -12154.451092 -11147.609344  21258.804383   -102.863329                    
V 21  22388.484143 -13592.099972   5147.241159      -.027139                    
P 22 -23995.042283 -10879.595403  -3575.827036    158.785670                    
V 22  -2313.017721  -5478.751167  30630.927688      -.007187                    
P 23    276.073474  26373.879622    -18.559494    343.179253                    
V 23  -2942.431548     11.150503 -32095.138439      -.020563                    
P 24 -15309.738309  17917.625702 -11948.600443    339.500165                    
V 24 -14902.440783   4738.200664  26333.305506       .033487                    
P 25 -13726.805917 -18128.981185 -13736.715482    -52.103988                    
V 25  16399.059138   6244.095844 -24670.352271      -.023721                    
P 26  11603.897516 -16627.028150  16354.007742    -52.265591                    
V 26    603.251445  22022.902840  21639.905102      -.081401                    
P 27  16421.918977 -18346.885840  -8972.187595    208.388528                    
V 27  11600.392514  -4987.613324  29471.707616       .035909                    
P 28  22942.150710  13676.064341   -113.025802      5.075714                    
V 28   -510.884698   2283.224417  31822.796177       .017337                    
P 29  -5952.919590 -24324.351227   8983.907730    164.129959                    
V 29   2684.392226 -11254.529722 -28904.395506       .026545                    
P 30 -22791.859192 -13470.009283  -2810.509930    296.969239                    
V 30   3984.745777  -1176.431694 -31421.743505       .033120                    
P 31 -23932.883779   7180.959236  -9064.623524      9.451136                    
V 31   9067.742554  -7696.017140 -29180.564160       .037907                    
P 32  -5068.314791  14640.343923 -21290.562188   -133.110877                    
V 32 -23244.110742 -15179.847303  -4459.213227      -.084558                    
EOF
